HIMAWARI-8              
1 40267U 14060A   23309.46878303 -.00000272  00000+0  00000+0 0  9996
2 40267   0.0349  86.9862 0001144 127.2672 139.6290  1.00273818 33290
